{"type": "FeatureCollection", "features": [ {"type": "Feature", "properties": {"norad_id": 66570, "name": "STARLINK-35834", "group": "last-30-days", "lat": 41.83109537237076, "lon": 160.40241030113518, "alt_km": 408.04033736778, "timestamp": "2025-12-18T15:47:09.958944+00:00", "meta": {"OBJECT_NAME": "STARLINK-35834", "OBJECT_ID": "2025-268P", "EPOCH": "2025-12-18T06:10:33.333600", "MEAN_MOTION": 15.50629464, "ECCENTRICITY": 1.625e-05, "INCLINATION": 42.9965, "RA_OF_ASC_NODE": 88.87, "ARG_OF_PERICENTER": 20.7347, "MEAN_ANOMALY": 339.352, "EPHEMERIS_TYPE": 0, "CLASSIFICATION_TYPE": "U", "NORAD_CAT_ID": 66570, "ELEMENT_SET_NO": 999, "REV_AT_EPOCH": 548, "BSTAR": 0.00097294209, "MEAN_MOTION_DOT": 0.00057258, "MEAN_MOTION_DDOT": 0}, "tle": {"line1": "1 66570U 25268P   25352.25733025  .00057258  00000+0  97294-3 0  9991", "line2": "2 66570  42.9965  88.8700 0000162  20.7347 339.3520 15.50629464  5488"}}, "geometry": {"type": "Point", "coordinates": [160.40241030113518, 41.83109537237076]}}, {"type": "Feature", "properties": {"norad_id": 66571, "name": "STARLINK-35836", "group": "last-30-days", "lat": 42.15917600222026, "lon": 162.837642330097, "alt_km": 409.26379889452164, "timestamp": "2025-12-18T15:47:09.958957+00:00", "meta": {"OBJECT_NAME": "STARLINK-35836", "OBJECT_ID": "2025-268Q", "EPOCH": "2025-12-18T03:04:32.750112", "MEAN_MOTION": 15.50588696, "ECCENTRICITY": 0.00015752, "INCLINATION": 43.0015, "RA_OF_ASC_NODE": 89.6197, "ARG_OF_PERICENTER": 271.0321, "MEAN_ANOMALY": 89.0359, "EPHEMERIS_TYPE": 0, "CLASSIFICATION_TYPE": "U", "NORAD_CAT_ID": 66571, "ELEMENT_SET_NO": 999, "REV_AT_EPOCH": 546, "BSTAR": 0.00039751228, "MEAN_MOTION_DOT": 0.00023055, "MEAN_MOTION_DDOT": 0}, "tle": {"line1": "1 66571U 25268Q   25352.12815683  .00023055  00000+0  39751-3 0  9991", "line2": "2 66571  43.0015  89.6197 0001575 271.0321  89.0359 15.50588696  5466"}}, "geometry": {"type": "Point", "coordinates": [162.837642330097, 42.15917600222026]}}, {"type": "Feature", "properties": {"norad_id": 66572, "name": "STARLINK-35870", "group": "last-30-days", "lat": 42.43061398025235, "lon": 165.30801708704388, "alt_km": 409.3278461752734, "timestamp": "2025-12-18T15:47:09.958968+00:00", "meta": {"OBJECT_NAME": "STARLINK-35870", "OBJECT_ID": "2025-268R", "EPOCH": "2025-12-18T00:00:02.000160", "MEAN_MOTION": 15.50550087, "ECCENTRICITY": 0.00015408, "INCLINATION": 43.001, "RA_OF_ASC_NODE": 90.3647, "ARG_OF_PERICENTER": 269.8549, "MEAN_ANOMALY": 96.0357, "EPHEMERIS_TYPE": 0, "CLASSIFICATION_TYPE": "U", "NORAD_CAT_ID": 66572, "ELEMENT_SET_NO": 999, "REV_AT_EPOCH": 551, "BSTAR": 0.00029129984, "MEAN_MOTION_DOT": 0.00016766, "MEAN_MOTION_DDOT": 0}, "tle": {"line1": "1 66572U 25268R   25352.00002315  .00016766  00000+0  29130-3 0  9990", "line2": "2 66572  43.0010  90.3647 0001540 269.8549  96.0357 15.50550087  5515"}}, "geometry": {"type": "Point", "coordinates": [165.30801708704388, 42.43061398025235]}}, {"type": "Feature", "properties": {"norad_id": 66573, "name": "STARLINK-35650", "group": "last-30-days", "lat": 42.656490996461606, "lon": 167.89873143020594, "alt_km": 409.22210824024114, "timestamp": "2025-12-18T15:47:09.958978+00:00", "meta": {"OBJECT_NAME": "STARLINK-35650", "OBJECT_ID": "2025-268S", "EPOCH": "2025-12-18T06:00:02.999808", "MEAN_MOTION": 15.50491115, "ECCENTRICITY": 0.00014392, "INCLINATION": 43.001, "RA_OF_ASC_NODE": 88.8982, "ARG_OF_PERICENTER": 259.975, "MEAN_ANOMALY": 65.1216, "EPHEMERIS_TYPE": 0, "CLASSIFICATION_TYPE": "U", "NORAD_CAT_ID": 66573, "ELEMENT_SET_NO": 999, "REV_AT_EPOCH": 555, "BSTAR": 0.0018755575, "MEAN_MOTION_DOT": 0.00110912, "MEAN_MOTION_DDOT": 0}, "tle": {"line1": "1 66573U 25268S   25352.25003472  .00110912  00000+0  18756-2 0  9992", "line2": "2 66573  43.0010  88.8982 0001439 259.9750  65.1216 15.50491115  5552"}}, "geometry": {"type": "Point", "coordinates": [167.89873143020594, 42.656490996461606]}}, {"type": "Feature", "properties": {"norad_id": 66574, "name": "STARLINK-35812", "group": "last-30-days", "lat": 42.82773791393523, "lon": 170.62236917729027, "alt_km": 408.05647886011866, "timestamp": "2025-12-18T15:47:09.958988+00:00", "meta": {"OBJECT_NAME": "STARLINK-35812", "OBJECT_ID": "2025-268T", "EPOCH": "2025-12-17T23:57:33.792192", "MEAN_MOTION": 15.50579362, "ECCENTRICITY": 2.71e-05, "INCLINATION": 42.9991, "RA_OF_ASC_NODE": 90.3647, "ARG_OF_PERICENTER": 316.509, "MEAN_ANOMALY": 43.5748, "EPHEMERIS_TYPE": 0, "CLASSIFICATION_TYPE": "U", "NORAD_CAT_ID": 66574, "ELEMENT_SET_NO": 999, "REV_AT_EPOCH": 544, "BSTAR": 0.0011917303, "MEAN_MOTION_DOT": 0.00070201, "MEAN_MOTION_DDOT": 0}, "tle": {"line1": "1 66574U 25268T   25351.99830778  .00070201  00000+0  11917-2 0  9998", "line2": "2 66574  42.9991  90.3647 0000271 316.5090  43.5748 15.50579362  5444"}}, "geometry": {"type": "Point", "coordinates": [170.62236917729027, 42.82773791393523]}}, {"type": "Feature", "properties": {"norad_id": 66575, "name": "STARLINK-35810", "group": "last-30-days", "lat": 42.94081464520038, "lon": 173.33450262758842, "alt_km": 409.525047505992, "timestamp": "2025-12-18T15:47:09.958999+00:00", "meta": {"OBJECT_NAME": "STARLINK-35810", "OBJECT_ID": "2025-268U", "EPOCH": "2025-12-17T23:57:03.017376", "MEAN_MOTION": 15.5059527, "ECCENTRICITY": 0.00023812, "INCLINATION": 43.0049, "RA_OF_ASC_NODE": 90.3605, "ARG_OF_PERICENTER": 264.7173, "MEAN_ANOMALY": 95.3416, "EPHEMERIS_TYPE": 0, "CLASSIFICATION_TYPE": "U", "NORAD_CAT_ID": 66575, "ELEMENT_SET_NO": 999, "REV_AT_EPOCH": 544, "BSTAR": 0.0010970118, "MEAN_MOTION_DOT": 0.00064588, "MEAN_MOTION_DDOT": 0}, "tle": {"line1": "1 66575U 25268U   25351.99795159  .00064588  00000+0  10970-2 0  9991", "line2": "2 66575  43.0049  90.3605 0002381 264.7173  95.3416 15.50595270  5448"}}, "geometry": {"type": "Point", "coordinates": [173.33450262758842, 42.94081464520038]}}, {"type": "Feature", "properties": {"norad_id": 66576, "name": "STARLINK-35814", "group": "last-30-days", "lat": 42.97878193757887, "lon": 176.07631641714124, "alt_km": 407.9494522773066, "timestamp": "2025-12-18T15:47:09.959009+00:00", "meta": {"OBJECT_NAME": "STARLINK-35814", "OBJECT_ID": "2025-268V", "EPOCH": "2025-12-17T23:56:34.262592", "MEAN_MOTION": 15.50623558, "ECCENTRICITY": 5.191e-05, "INCLINATION": 43, "RA_OF_ASC_NODE": 90.3601, "ARG_OF_PERICENTER": 307.65, "MEAN_ANOMALY": 52.4313, "EPHEMERIS_TYPE": 0, "CLASSIFICATION_TYPE": "U", "NORAD_CAT_ID": 66576, "ELEMENT_SET_NO": 999, "REV_AT_EPOCH": 544, "BSTAR": 0.001656233, "MEAN_MOTION_DOT": 0.00098204, "MEAN_MOTION_DDOT": 0}, "tle": {"line1": "1 66576U 25268V   25351.99761878  .00098204  00000+0  16562-2 0  9998", "line2": "2 66576  43.0000  90.3601 0000519 307.6500  52.4313 15.50623558  5445"}}, "geometry": {"type": "Point", "coordinates": [176.07631641714124, 42.97878193757887]}}, {"type": "Feature", "properties": {"norad_id": 66577, "name": "STARLINK-35815", "group": "last-30-days", "lat": 42.94700810738934, "lon": 179.2489689545929, "alt_km": 408.47708794267055, "timestamp": "2025-12-18T15:47:09.959035+00:00", "meta": {"OBJECT_NAME": "STARLINK-35815", "OBJECT_ID": "2025-268W", "EPOCH": "2025-12-17T16:12:16.385760", "MEAN_MOTION": 15.50672018, "ECCENTRICITY": 0.00015138, "INCLINATION": 43.0006, "RA_OF_ASC_NODE": 92.24, "ARG_OF_PERICENTER": 270.8757, "MEAN_ANOMALY": 89.193, "EPHEMERIS_TYPE": 0, "CLASSIFICATION_TYPE": "U", "NORAD_CAT_ID": 66577, "ELEMENT_SET_NO": 999, "REV_AT_EPOCH": 539, "BSTAR": 0.0013863265, "MEAN_MOTION_DOT": 0.00082117, "MEAN_MOTION_DDOT": 0}, "tle": {"line1": "1 66577U 25268W   25351.67518965  .00082117  00000+0  13863-2 0  9998", "line2": "2 66577  43.0006  92.2400 0001513 270.8757  89.1930 15.50672018  5391"}}, "geometry": {"type": "Point", "coordinates": [179.2489689545929, 42.94700810738934]}}, {"type": "Feature", "properties": {"norad_id": 66578, "name": "STARLINK-35743", "group": "last-30-days", "lat": 42.88083739158122, "lon": -178.85158336252888, "alt_km": 407.5273188650035, "timestamp": "2025-12-18T15:47:09.959055+00:00", "meta": {"OBJECT_NAME": "STARLINK-35743", "OBJECT_ID": "2025-268X", "EPOCH": "2025-12-18T07:39:21.777120", "MEAN_MOTION": 15.50638994, "ECCENTRICITY": 7.689e-05, "INCLINATION": 42.9959, "RA_OF_ASC_NODE": 88.4705, "ARG_OF_PERICENTER": 50.5928, "MEAN_ANOMALY": 309.5, "EPHEMERIS_TYPE": 0, "CLASSIFICATION_TYPE": "U", "NORAD_CAT_ID": 66578, "ELEMENT_SET_NO": 999, "REV_AT_EPOCH": 549, "BSTAR": 0.0011057186, "MEAN_MOTION_DOT": 0.00065207, "MEAN_MOTION_DDOT": 0}, "tle": {"line1": "1 66578U 25268X   25352.31900205  .00065207  00000+0  11057-2 0  9997", "line2": "2 66578  42.9959  88.4705 0000768  50.5928 309.5000 15.50638994  5499"}}, "geometry": {"type": "Point", "coordinates": [-178.85158336252888, 42.88083739158122]}}, {"type": "Feature", "properties": {"norad_id": 66579, "name": "STARLINK-35868", "group": "last-30-days", "lat": 42.749777451248505, "lon": -176.21750850241895, "alt_km": 410.1510615094812, "timestamp": "2025-12-18T15:47:09.959067+00:00", "meta": {"OBJECT_NAME": "STARLINK-35868", "OBJECT_ID": "2025-268Y", "EPOCH": "2025-12-17T23:55:04.271808", "MEAN_MOTION": 15.50594752, "ECCENTRICITY": 0.00032495, "INCLINATION": 43.0027, "RA_OF_ASC_NODE": 90.3514, "ARG_OF_PERICENTER": 265.4056, "MEAN_ANOMALY": 94.6433, "EPHEMERIS_TYPE": 0, "CLASSIFICATION_TYPE": "U", "NORAD_CAT_ID": 66579, "ELEMENT_SET_NO": 999, "REV_AT_EPOCH": 544, "BSTAR": 0.0010241865, "MEAN_MOTION_DOT": 0.00060248, "MEAN_MOTION_DDOT": 0}, "tle": {"line1": "1 66579U 25268Y   25351.99657722  .00060248  00000+0  10242-2 0  9999", "line2": "2 66579  43.0027  90.3514 0003249 265.4056  94.6433 15.50594752  5444"}}, "geometry": {"type": "Point", "coordinates": [-176.21750850241895, 42.749777451248505]}}]}